OBJECT_NAME,OBJECT_ID,EPOCH,MEAN_MOTION,ECCENTRICITY,INCLINATION,RA_OF_ASC_NODE,ARG_OF_PERICENTER,MEAN_ANOMALY,EPHEMERIS_TYPE,CLASSIFICATION_TYPE,NORAD_CAT_ID,ELEMENT_SET_NO,REV_AT_EPOCH,BSTAR,MEAN_MOTION_DOT,MEAN_MOTION_DDOT
KOREASAT 5 (MUGUNGWHA 5),2006-034A,2026-07-17T13:47:38.672160,1.00272830,.00016669,1.8617,82.6068,79.3416,93.3985,0,U,29349,999,4162,0,-.368E-5,0
DIRECTV 9S,2006-043A,2026-07-17T14:30:09.856800,1.00271436,.00050025,2.4975,80.5356,32.3023,298.9181,0,U,29494,999,5168,0,-.124E-5,0
OPTUS D1,2006-043B,2026-07-17T13:07:38.548416,1.00272263,.00035771,3.1111,79.2835,35.6056,169.3357,0,U,29495,999,7242,0,-.195E-5,0
BADR-4,2006-051A,2026-07-17T15:08:36.171744,1.00272711,.0004825,2.0816,80.7859,32.7052,83.5506,0,U,29526,999,5157,0,.145E-5,0
WILDBLUE-1,2006-054A,2026-07-17T12:44:45.419136,1.00272057,.00014152,2.8796,80.1001,28.9256,266.2924,0,U,29643,999,5409,0,-.6E-6,0
SKYNET 5A,2007-007B,2026-07-17T15:26:11.647968,1.00273821,.00034167,5.3748,73.3656,44.8500,143.9891,0,U,30794,999,7100,0,-.283E-5,0
ANIK F3,2007-009A,2026-07-17T14:25:10.335648,1.00271804,.00025459,1.2745,83.4850,32.4588,277.0362,0,U,31102,999,4686,0,-.11E-6,0
ASTRA 1L,2007-016A,2026-07-17T11:26:44.791584,1.00270951,.00053031,1.3983,81.3325,35.4796,325.6546,0,U,31306,999,4529,0,-.195E-5,0
GALAXY 17 (G-17),2007-016B,2026-07-17T14:34:46.914816,1.00271358,.00036482,3.0468,79.5166,35.9755,313.6002,0,U,31307,999,7010,0,-.217E-5,0
INTELSAT 11 (IS-11),2007-044B,2026-07-17T09:48:59.175936,0.99052783,.00042971,3.6423,78.3024,99.9926,257.0586,0,U,32253,999,6874,0,-.21E-5,0
WGS F1 (USA 195),2007-046A,2026-07-17T11:21:37.782144,1.00269585,.00002213,0.0161,68.7612,160.0093,194.4096,0,U,32258,999,5263,0,-.277E-5,0
SKYNET 5B,2007-056B,2026-07-17T08:37:38.609760,1.00275705,.00037053,5.3258,73.1405,46.4360,330.1487,0,U,32294,999,6850,0,.128E-5,0
ASTRA 4A,2007-057A,2026-07-17T15:00:21.962016,1.00272181,.00024002,0.0341,293.4409,187.6839,44.1936,0,U,32299,999,5195,0,.23E-6,0
HORIZONS-2,2007-063B,2026-07-17T12:55:21.902016,1.00273110,.00035492,2.6786,80.2541,17.4103,317.7169,0,U,32388,999,6811,0,-.264E-5,0
THURAYA-3,2008-001A,2026-07-17T14:38:27.936384,1.00272665,.00022129,6.0401,35.8265,77.6121,105.2956,0,U,32404,999,6779,0,-.2E-7,0
THOR 5,2008-006A,2026-07-17T13:16:04.916352,1.00271976,.00024256,0.0308,246.6384,237.2998,9.6876,0,U,32487,999,6762,0,-.19E-6,0
AMC-14,2008-011A,2026-07-16T23:58:05.767104,1.00420301,.00395902,24.0445,20.1599,8.4226,345.4788,0,U,32708,999,6846,0,-.198E-5,0
DIRECTV 11,2008-013A,2026-07-17T11:05:31.824960,1.00270476,.00001512,0.0057,267.0547,297.3767,158.0387,0,U,32729,999,4589,0,-.135E-5,0
ICO G1,2008-016A,2026-07-17T14:32:32.129952,1.00272964,.00022771,5.5269,36.0254,71.2561,313.4268,0,U,32763,999,6685,0,-.183E-5,0
VINASAT-1,2008-018A,2026-07-17T13:53:58.326720,1.00272045,.00016131,0.0457,266.3838,221.9712,147.4642,0,U,32767,999,6689,0,-.338E-5,0
STAR ONE C2,2008-018B,2026-07-17T12:06:38.831040,1.00270166,.00028609,1.3160,82.1742,50.4928,279.2998,0,U,32768,999,6695,0,-.287E-5,0
AMOS-3,2008-022A,2026-07-17T15:16:50.046240,1.00489145,.00030954,0.5320,85.7773,83.4664,57.5784,0,U,32794,999,8264,0,-.22E-6,0
GALAXY 18 (G-18),2008-024A,2026-07-17T14:23:55.455360,1.00271154,.00028792,0.0165,78.4344,36.8080,273.1310,0,U,32951,999,4615,0,.16E-6,0
ZHONGXING-9,2008-028A,2026-07-17T15:59:11.472000,1.00268571,.0003268,0.8451,84.9371,31.6908,150.9821,0,U,33051,999,6634,0,-.257E-5,0
SKYNET 5C,2008-030A,2026-07-17T08:03:24.695136,1.00272307,.00041911,3.8642,76.6814,47.1653,274.3656,0,U,33055,999,6625,0,-.151E-5,0
TURKSAT 3A,2008-030B,2026-07-17T15:11:05.596224,1.00271710,.00049357,0.0414,76.8001,20.3051,108.0812,0,U,33056,999,5266,0,.137E-5,0
ECHOSTAR 11,2008-035A,2026-07-17T14:27:47.583648,1.00271248,.00022782,1.0821,83.8289,23.1937,295.5305,0,U,33207,999,5151,0,-.68E-6,0
SUPERBIRD-C2,2008-038A,2026-07-17T13:31:38.542656,1.00272026,.00062611,2.4376,80.8860,38.8593,154.5444,0,U,33274,999,10603,0,-.317E-5,0
INMARSAT 4-F3,2008-039A,2026-07-17T09:56:38.677056,1.00271994,.00027661,4.3191,31.7060,89.9269,224.7711,0,U,33278,999,4684,0,-.151E-5,0
NIMIQ 4,2008-044A,2026-07-17T14:35:39.331104,1.00271150,.00018809,0.0147,43.8892,60.6554,327.7918,0,U,33373,999,6528,0,-.23E-5,0
GALAXY 19 (G-19),2008-045A,2026-07-17T14:31:24.737952,1.00270940,.00024386,0.0501,242.9368,243.4882,289.8464,0,U,33376,999,6520,0,-.148E-5,0
ASTRA 1M,2008-057A,2026-07-17T15:04:36.555168,1.00270793,.00045439,0.3729,82.8055,42.3737,55.7783,0,U,33436,999,4604,0,.111E-5,0
