KOREASAT 5 (MUGUNGWHA 5)
1 29349U 06034A   26198.57475315 -.00000368  00000+0  00000+0 0  9999
2 29349   1.8617  82.6068 0001666  79.3416  93.3985  1.00272830 41624
DIRECTV 9S              
1 29494U 06043A   26198.60428075 -.00000124  00000+0  00000+0 0  9995
2 29494   2.4975  80.5356 0005002  32.3023 298.9181  1.00271436 51686
OPTUS D1                
1 29495U 06043B   26198.54697394 -.00000195  00000+0  00000+0 0  9999
2 29495   3.1111  79.2835 0003577  35.6056 169.3357  1.00272263 72421
BADR-4                  
1 29526U 06051A   26198.63097421  .00000145  00000+0  00000+0 0  9992
2 29526   2.0816  80.7859 0004825  32.7052  83.5506  1.00272711 51574
WILDBLUE-1              
1 29643U 06054A   26198.53108124 -.00000060  00000+0  00000+0 0  9994
2 29643   2.8796  80.1001 0001415  28.9256 266.2924  1.00272057 54094
SKYNET 5A               
1 30794U 07007B   26198.64319037 -.00000283  00000+0  00000+0 0  9998
2 30794   5.3748  73.3656 0003416  44.8500 143.9891  1.00273821 71004
ANIK F3                 
1 31102U 07009A   26198.60081407 -.00000011  00000+0  00000+0 0  9996
2 31102   1.2745  83.4850 0002545  32.4588 277.0362  1.00271804 46866
ASTRA 1L                
1 31306U 07016A   26198.47690731 -.00000195  00000+0  00000+0 0  9994
2 31306   1.3983  81.3325 0005303  35.4796 325.6546  1.00270951 45292
GALAXY 17 (G-17)        
1 31307U 07016B   26198.60748744 -.00000217  00000+0  00000+0 0  9993
2 31307   3.0468  79.5166 0003648  35.9755 313.6002  1.00271358 70106
INTELSAT 11 (IS-11)     
1 32253U 07044B   26198.40901824 -.00000210  00000+0  00000+0 0  9996
2 32253   3.6423  78.3024 0004297  99.9926 257.0586  0.99052783 68746
WGS F1 (USA 195)        
1 32258U 07046A   26198.47335396 -.00000277  00000+0  00000+0 0  9998
2 32258   0.0161  68.7612 0000221 160.0093 194.4096  1.00269585 52639
SKYNET 5B               
1 32294U 07056B   26198.35947465  .00000128  00000+0  00000+0 0  9996
2 32294   5.3258  73.1405 0003705  46.4360 330.1487  1.00275705 68505
ASTRA 4A                
1 32299U 07057A   26198.62525419  .00000023  00000+0  00000+0 0  9997
2 32299   0.0341 293.4409 0002400 187.6839  44.1936  1.00272181 51953
HORIZONS-2              
1 32388U 07063B   26198.53844794 -.00000264  00000+0  00000+0 0  9991
2 32388   2.6786  80.2541 0003549  17.4103 317.7169  1.00273110 68117
THURAYA-3               
1 32404U 08001A   26198.61004556 -.00000002  00000+0  00000+0 0  9996
2 32404   6.0401  35.8265 0002212  77.6121 105.2956  1.00272665 67792
THOR 5                  
1 32487U 08006A   26198.55283468 -.00000019  00000+0  00000+0 0  9994
2 32487   0.0308 246.6384 0002425 237.2998   9.6876  1.00271976 67623
AMC-14                  
1 32708U 08011A   26197.99867786 -.00000198  00000+0  00000+0 0  9992
2 32708  24.0445  20.1599 0039590   8.4226 345.4788  1.00420301 68469
DIRECTV 11              
1 32729U 08013A   26198.46217390 -.00000135  00000+0  00000+0 0  9991
2 32729   0.0057 267.0547 0000151 297.3767 158.0387  1.00270476 45891
ICO G1                  
1 32763U 08016A   26198.60592743 -.00000183  00000+0  00000+0 0  9999
2 32763   5.5269  36.0254 0002277  71.2561 313.4268  1.00272964 66853
VINASAT-1               
1 32767U 08018A   26198.57914730 -.00000338  00000+0  00000+0 0  9997
2 32767   0.0457 266.3838 0001613 221.9712 147.4642  1.00272045 66892
STAR ONE C2             
1 32768U 08018B   26198.50461610 -.00000287  00000+0  00000+0 0  9998
2 32768   1.3160  82.1742 0002860  50.4928 279.2998  1.00270166 66952
AMOS-3                  
1 32794U 08022A   26198.63669035 -.00000022  00000+0  00000+0 0  9994
2 32794   0.5320  85.7773 0003095  83.4664  57.5784  1.00489145 82640
GALAXY 18 (G-18)        
1 32951U 08024A   26198.59994740  .00000016  00000+0  00000+0 0  9992
2 32951   0.0165  78.4344 0002879  36.8080 273.1310  1.00271154 46159
ZHONGXING-9             
1 33051U 08028A   26198.66610500 -.00000257  00000+0  00000+0 0  9993
2 33051   0.8451  84.9371 0003268  31.6908 150.9821  1.00268571 66345
SKYNET 5C               
1 33055U 08030A   26198.33570249 -.00000151  00000+0  00000+0 0  9992
2 33055   3.8642  76.6814 0004191  47.1653 274.3656  1.00272307 66258
TURKSAT 3A              
1 33056U 08030B   26198.63270366  .00000137  00000+0  00000+0 0  9996
2 33056   0.0414  76.8001 0004935  20.3051 108.0812  1.00271710 52660
ECHOSTAR 11             
1 33207U 08035A   26198.60263407 -.00000068  00000+0  00000+0 0  9998
2 33207   1.0821  83.8289 0002278  23.1937 295.5305  1.00271248 51517
SUPERBIRD-C2            
1 33274U 08038A   26198.56364054 -.00000317  00000+0  00000+0 0  9997
2 33274   2.4376  80.8860 0006261  38.8593 154.5444  1.00272026106031
INMARSAT 4-F3           
1 33278U 08039A   26198.41433654 -.00000151  00000+0  00000+0 0  9995
2 33278   4.3191  31.7060 0002766  89.9269 224.7711  1.00271994 46843
NIMIQ 4                 
1 33373U 08044A   26198.60809411 -.00000230  00000+0  00000+0 0  9994
2 33373   0.0147  43.8892 0001880  60.6554 327.7918  1.00271150 65285
GALAXY 19 (G-19)        
1 33376U 08045A   26198.60514743 -.00000148  00000+0  00000+0 0  9997
2 33376   0.0501 242.9368 0002438 243.4882 289.8464  1.00270940 65209
ASTRA 1M                
1 33436U 08057A   26198.62820087  .00000111  00000+0  00000+0 0  9999
2 33436   0.3729  82.8055 0004543  42.3737  55.7783  1.00270793 46040
